{
  "type": "FeatureCollection",
  "features": [
    {
      "type": "Feature",
      "properties": {
        "norad_id": 66794,
        "name": "STARLINK-36062",
        "group": "last-30-days",
        "lat": 0.16284389315890765,
        "lon": -101.83424335068514,
        "alt_km": 303.63055064004584,
        "timestamp": "2025-12-11T18:59:44.811676+00:00",
        "meta_object_name": "STARLINK-36062",
        "meta_object_id": "2025-278D",
        "meta_epoch": "2025-12-11T06:00:02.999808",
        "meta_mean_motion": 15.90555361,
        "meta_eccentricity": 0.00019164,
        "meta_inclination": 42.9981,
        "meta_ra_of_asc_node": 261.3499,
        "meta_arg_of_pericenter": 275.0597,
        "meta_mean_anomaly": 222.1922,
        "meta_ephemeris_type": 0,
        "meta_classification_type": "U",
        "meta_norad_cat_id": 66794,
        "meta_element_set_no": 999,
        "meta_rev_at_epoch": 271,
        "meta_bstar": -0.0035422236,
        "meta_mean_motion_dot": -0.01013434,
        "meta_mean_motion_ddot": 0,
        "tle_line1": "1 66794U 25278D   25345.25003472 -.01013434  00000+0 -35422-2 0  9993",
        "tle_line2": "2 66794  42.9981 261.3499 0001916 275.0597 222.1922 15.90555361  2713"
      },
      "geometry": {
        "type": "Point",
        "coordinates": [
          -101.83424335068514,
          0.16284389315890765
        ]
      }
    },
    {
      "type": "Feature",
      "properties": {
        "norad_id": 66795,
        "name": "STARLINK-36047",
        "group": "last-30-days",
        "lat": 3.4708019452649914,
        "lon": -98.28921235529143,
        "alt_km": 303.2637997304664,
        "timestamp": "2025-12-11T18:59:44.811686+00:00",
        "meta_object_name": "STARLINK-36047",
        "meta_object_id": "2025-278E",
        "meta_epoch": "2025-12-11T06:00:02.999808",
        "meta_mean_motion": 15.90644491,
        "meta_eccentricity": 0.00018052,
        "meta_inclination": 42.9982,
        "meta_ra_of_asc_node": 261.3379,
        "meta_arg_of_pericenter": 270.4686,
        "meta_mean_anomaly": 231.4899,
        "meta_ephemeris_type": 0,
        "meta_classification_type": "U",
        "meta_norad_cat_id": 66795,
        "meta_element_set_no": 999,
        "meta_rev_at_epoch": 261,
        "meta_bstar": -0.0036020461,
        "meta_mean_motion_dot": -0.01032909,
        "meta_mean_motion_ddot": 0,
        "tle_line1": "1 66795U 25278E   25345.25003472 -.01032909  00000+0 -36020-2 0  9997",
        "tle_line2": "2 66795  42.9982 261.3379 0001805 270.4686 231.4899 15.90644491  2615"
      },
      "geometry": {
        "type": "Point",
        "coordinates": [
          -98.28921235529143,
          3.4708019452649914
        ]
      }
    },
    {
      "type": "Feature",
      "properties": {
        "norad_id": 66796,
        "name": "STARLINK-35964",
        "group": "last-30-days",
        "lat": -42.945709077036874,
        "lon": 169.8717238064666,
        "alt_km": 266.18521441580924,
        "timestamp": "2025-12-11T18:59:44.811699+00:00",
        "meta_object_name": "STARLINK-35964",
        "meta_object_id": "2025-278F",
        "meta_epoch": "2025-12-11T06:00:02.999808",
        "meta_mean_motion": 16.04991979,
        "meta_eccentricity": 0.0001955,
        "meta_inclination": 42.9959,
        "meta_ra_of_asc_node": 260.7295,
        "meta_arg_of_pericenter": 268.0928,
        "meta_mean_anomaly": 112.6953,
        "meta_ephemeris_type": 0,
        "meta_classification_type": "U",
        "meta_norad_cat_id": 66796,
        "meta_element_set_no": 999,
        "meta_rev_at_epoch": 255,
        "meta_bstar": -0.0018240476,
        "meta_mean_motion_dot": -0.01304302,
        "meta_mean_motion_ddot": 0.00056324623,
        "tle_line1": "1 66796U 25278F   25345.25003472 -.01304302  56325-3 -18240-2 0  9996",
        "tle_line2": "2 66796  42.9959 260.7295 0001955 268.0928 112.6953 16.04991979  2554"
      },
      "geometry": {
        "type": "Point",
        "coordinates": [
          169.8717238064666,
          -42.945709077036874
        ]
      }
    },
    {
      "type": "Feature",
      "properties": {
        "norad_id": 66797,
        "name": "STARLINK-36099",
        "group": "last-30-days",
        "lat": 7.166810210702869,
        "lon": -94.27946321620203,
        "alt_km": 302.62101679747775,
        "timestamp": "2025-12-11T18:59:44.811709+00:00",
        "meta_object_name": "STARLINK-36099",
        "meta_object_id": "2025-278G",
        "meta_epoch": "2025-12-11T06:00:02.999808",
        "meta_mean_motion": 15.90726445,
        "meta_eccentricity": 0.00019132,
        "meta_inclination": 42.9981,
        "meta_ra_of_asc_node": 261.3245,
        "meta_arg_of_pericenter": 273.0431,
        "meta_mean_anomaly": 234.2162,
        "meta_ephemeris_type": 0,
        "meta_classification_type": "U",
        "meta_norad_cat_id": 66797,
        "meta_element_set_no": 999,
        "meta_rev_at_epoch": 277,
        "meta_bstar": -0.0036293317,
        "meta_mean_motion_dot": -0.01043901,
        "meta_mean_motion_ddot": 0,
        "tle_line1": "1 66797U 25278G   25345.25003472 -.01043901  00000+0 -36293-2 0  9995",
        "tle_line2": "2 66797  42.9981 261.3245 0001913 273.0431 234.2162 15.90726445  2776"
      },
      "geometry": {
        "type": "Point",
        "coordinates": [
          -94.27946321620203,
          7.166810210702869
        ]
      }
    },
    {
      "type": "Feature",
      "properties": {
        "norad_id": 66798,
        "name": "STARLINK-36041",
        "group": "last-30-days",
        "lat": 8.518864230198115,
        "lon": -92.78952439541261,
        "alt_km": 302.3676372034997,
        "timestamp": "2025-12-11T18:59:44.811719+00:00",
        "meta_object_name": "STARLINK-36041",
        "meta_object_id": "2025-278H",
        "meta_epoch": "2025-12-11T06:00:02.999808",
        "meta_mean_motion": 15.90763977,
        "meta_eccentricity": 0.00019162,
        "meta_inclination": 42.9982,
        "meta_ra_of_asc_node": 261.3195,
        "meta_arg_of_pericenter": 273.1491,
        "meta_mean_anomaly": 236.0411,
        "meta_ephemeris_type": 0,
        "meta_classification_type": "U",
        "meta_norad_cat_id": 66798,
        "meta_element_set_no": 999,
        "meta_rev_at_epoch": 255,
        "meta_bstar": -0.0036211534,
        "meta_mean_motion_dot": -0.0104362,
        "meta_mean_motion_ddot": 0,
        "tle_line1": "1 66798U 25278H   25345.25003472 -.01043620  00000+0 -36212-2 0  9995",
        "tle_line2": "2 66798  42.9982 261.3195 0001916 273.1491 236.0411 15.90763977  2556"
      },
      "geometry": {
        "type": "Point",
        "coordinates": [
          -92.78952439541261,
          8.518864230198115
        ]
      }
    },
    {
      "type": "Feature",
      "properties": {
        "norad_id": 66799,
        "name": "STARLINK-36044",
        "group": "last-30-days",
        "lat": 10.037123240796555,
        "lon": -91.09560872593015,
        "alt_km": 302.0887076060453,
        "timestamp": "2025-12-11T18:59:44.811732+00:00",
        "meta_object_name": "STARLINK-36044",
        "meta_object_id": "2025-278J",
        "meta_epoch": "2025-12-11T06:00:02.999808",
        "meta_mean_motion": 15.90809541,
        "meta_eccentricity": 0.00018683,
        "meta_inclination": 42.998,
        "meta_ra_of_asc_node": 261.3141,
        "meta_arg_of_pericenter": 274.1176,
        "meta_mean_anomaly": 237.2613,
        "meta_ephemeris_type": 0,
        "meta_classification_type": "U",
        "meta_norad_cat_id": 66799,
        "meta_element_set_no": 999,
        "meta_rev_at_epoch": 271,
        "meta_bstar": -0.0036614197,
        "meta_mean_motion_dot": -0.01056145,
        "meta_mean_motion_ddot": 0,
        "tle_line1": "1 66799U 25278J   25345.25003472 -.01056145  00000+0 -36614-2 0  9998",
        "tle_line2": "2 66799  42.9980 261.3141 0001868 274.1176 237.2613 15.90809541  2716"
      },
      "geometry": {
        "type": "Point",
        "coordinates": [
          -91.09560872593015,
          10.037123240796555
        ]
      }
    },
    {
      "type": "Feature",
      "properties": {
        "norad_id": 66800,
        "name": "STARLINK-35996",
        "group": "last-30-days",
        "lat": 13.036240665752317,
        "lon": -87.66932383749699,
        "alt_km": 301.60894448184445,
        "timestamp": "2025-12-11T18:59:44.811742+00:00",
        "meta_object_name": "STARLINK-35996",
        "meta_object_id": "2025-278K",
        "meta_epoch": "2025-12-11T06:00:02.999808",
        "meta_mean_motion": 15.90893355,
        "meta_eccentricity": 0.00019328,
        "meta_inclination": 42.998,
        "meta_ra_of_asc_node": 261.3028,
        "meta_arg_of_pericenter": 273.2044,
        "meta_mean_anomaly": 242.5379,
        "meta_ephemeris_type": 0,
        "meta_classification_type": "U",
        "meta_norad_cat_id": 66800,
        "meta_element_set_no": 999,
        "meta_rev_at_epoch": 250,
        "meta_bstar": -0.0037072559,
        "meta_mean_motion_dot": -0.01072078,
        "meta_mean_motion_ddot": 0,
        "tle_line1": "1 66800U 25278K   25345.25003472 -.01072078  00000+0 -37073-2 0  9994",
        "tle_line2": "2 66800  42.9980 261.3028 0001932 273.2044 242.5379 15.90893355  2500"
      },
      "geometry": {
        "type": "Point",
        "coordinates": [
          -87.66932383749699,
          13.036240665752317
        ]
      }
    }
  ]
}